$$SOE
2460721.500000000, A.D. 2025-Feb-15 00:00:00.0000, -2.458411182451558E+08, -4.622970454576632E+08, -8.458634510406575E+07,
2460728.500000000, A.D. 2025-Feb-22 00:00:00.0000, -2.377059693234264E+08, -4.666953308999632E+08, -8.428834266758671E+07,
2460735.500000000, A.D. 2025-Mar-01 00:00:00.0000, -2.294935193778562E+08, -4.709419217161316E+08, -8.396292977691114E+07,
2460742.500000000, A.D. 2025-Mar-08 00:00:00.0000, -2.212064717215515E+08, -4.750355101713626E+08, -8.361022567941394E+07,
2460749.500000000, A.D. 2025-Mar-15 00:00:00.0000, -2.128475457313667E+08, -4.789748280862672E+08, -8.323035666402298E+07,
2460756.500000000, A.D. 2025-Mar-22 00:00:00.0000, -2.044194786732864E+08, -4.827586465097060E+08, -8.282345578652480E+07,
2460763.500000000, A.D. 2025-Mar-29 00:00:00.0000, -1.959250261625756E+08, -4.863857776515957E+08, -8.238966290488556E+07,
2460770.500000000, A.D. 2025-Apr-05 00:00:00.0000, -1.873669609334116E+08, -4.898550759384037E+08, -8.192912479848042E+07,
2460777.500000000, A.D. 2025-Apr-12 00:00:00.0000, -1.787480718440543E+08, -4.931654380876372E+08, -8.144199518644685E+07,
2460784.500000000, A.D. 2025-Apr-19 00:00:00.0000, -1.700711633046874E+08, -4.963158030824362E+08, -8.092843470024139E+07,
2460791.500000000, A.D. 2025-Apr-26 00:00:00.0000, -1.613390548560950E+08, -4.993051522487522E+08, -8.038861085204029E+07,
2460798.500000000, A.D. 2025-May-03 00:00:00.0000, -1.525545807851620E+08, -5.021325094151744E+08, -7.982269800787306E+07,
2460805.500000000, A.D. 2025-May-10 00:00:00.0000, -1.437205897480700E+08, -5.047969411459024E+08, -7.923087736735243E+07,
2460812.500000000, A.D. 2025-May-17 00:00:00.0000, -1.348399443637066E+08, -5.072975570871615E+08, -7.861333695662823E+07,
2460819.500000000, A.D. 2025-May-24 00:00:00.0000, -1.259155206024307E+08, -5.096335104810752E+08, -7.797027165490741E+07,
2460826.500000000, A.D. 2025-May-31 00:00:00.0000, -1.169502065515104E+08, -5.118039985360291E+08, -7.730188326748979E+07,
2460833.500000000, A.D. 2025-Jun-07 00:00:00.0000, -1.079469009575630E+08, -5.138082614490030E+08, -7.660838051018679E+07,
2460840.500000000, A.D. 2025-Jun-14 00:00:00.0000, -9.890851391008835E+07, -5.156455807466415E+08, -7.588997874275920E+07,
2460847.500000000, A.D. 2025-Jun-21 00:00:00.0000, -8.983796844862692E+07, -5.173152802162878E+08, -7.514689983031341E+07,
2460854.500000000, A.D. 2025-Jun-28 00:00:00.0000, -8.073819996476942E+07, -5.188167276628738E+08, -7.437937227546367E+07,
2460861.500000000, A.D. 2025-Jul-05 00:00:00.0000, -7.161215491558009E+07, -5.201493353357295E+08, -7.358763130592656E+07,
2460868.500000000, A.D. 2025-Jul-12 00:00:00.0000, -6.246279003922247E+07, -5.213125598306037E+08, -7.277191887399077E+07,
2460875.500000000, A.D. 2025-Jul-19 00:00:00.0000, -5.329307188283458E+07, -5.223059020416774E+08, -7.193248363207221E+07,
2460882.500000000, A.D. 2025-Jul-26 00:00:00.0000, -4.410597643224560E+07, -5.231289072197898E+08, -7.106958090805507E+07,
2460889.500000000, A.D. 2025-Aug-02 00:00:00.0000, -3.490448877755767E+07, -5.237811651148580E+08, -7.018347268447325E+07,
2460896.500000000, A.D. 2025-Aug-09 00:00:00.0000, -2.569160279049993E+07, -5.242623102168618E+08, -6.927442758471358E+07,
2460903.500000000, A.D. 2025-Aug-16 00:00:00.0000, -1.647032073600631E+07, -5.245720221585364E+08, -6.834272087830389E+07,
2460910.500000000, A.D. 2025-Aug-23 00:00:00.0000, -7.243652524962684E+06, -5.247100262632983E+08, -6.738863453056484E+07,
2460917.500000000, A.D. 2025-Aug-30 00:00:00.0000, 1.985385721077037E+06, -5.246760935243161E+08, -6.641245726815248E+07,
2460924.500000000, A.D. 2025-Sep-06 00:00:00.0000, 1.121377237523714E+07, -5.244700390140406E+08, -6.541448444827032E+07,
2460931.500000000, A.D. 2025-Sep-13 00:00:00.0000, 2.043847861041545E+07, -5.240917212059978E+08, -6.439501778073734E+07,
2460938.500000000, A.D. 2025-Sep-20 00:00:00.0000, 2.965646757837347E+07, -5.235410438524975E+08, -6.335436533716300E+07,
2460945.500000000, A.D. 2025-Sep-27 00:00:00.0000, 3.886469552226205E+07, -5.228179573068767E+08, -6.229284168985748E+07,
2460952.500000000, A.D. 2025-Oct-04 00:00:00.0000, 4.806011280634829E+07, -5.219224587512169E+08, -6.121076795125046E+07,
2460959.500000000, A.D. 2025-Oct-11 00:00:00.0000, 5.723966448966527E+07, -5.208545922722560E+08, -6.010847175640604E+07,
2460966.500000000, A.D. 2025-Oct-18 00:00:00.0000, 6.640029072766939E+07, -5.196144490593604E+08, -5.898628723692164E+07,
2460973.500000000, A.D. 2025-Oct-25 00:00:00.0000, 7.553892714188740E+07, -5.182021677128085E+08, -5.784455499801868E+07,
2460980.500000000, A.D. 2025-Nov-01 00:00:00.0000, 8.465250519756068E+07, -5.166179346459785E+08, -5.668362210116583E+07,
2460987.500000000, A.D. 2025-Nov-08 00:00:00.0000, 9.373795262460497E+07, -5.148619846119978E+08, -5.550384205805755E+07,
2460994.500000000, A.D. 2025-Nov-15 00:00:00.0000, 1.027921940306000E+08, -5.129346014128760E+08, -5.430557485447621E+07,
2461001.500000000, A.D. 2025-Nov-22 00:00:00.0000, 1.118121521092150E+08, -5.108361185708460E+08, -5.308918702319309E+07,
2461008.500000000, A.D. 2025-Nov-29 00:00:00.0000, 1.207947492912816E+08, -5.085669188268381E+08, -5.185505165927070E+07,
2461015.500000000, A.D. 2025-Dec-06 00:00:00.0000, 1.297369075611974E+08, -5.061274326015194E+08, -5.060354818005767E+07,
2461022.500000000, A.D. 2025-Dec-13 00:00:00.0000, 1.386355468726669E+08, -5.035181387879242E+08, -4.933506214507630E+07,
2461029.500000000, A.D. 2025-Dec-20 00:00:00.0000, 1.474875856578360E+08, -5.007395668516961E+08, -4.804998537262943E+07,
2461036.500000000, A.D. 2025-Dec-27 00:00:00.0000, 1.562899423566234E+08, -4.977922976475267E+08, -4.674871604288504E+07,
2461043.500000000, A.D. 2026-Jan-03 00:00:00.0000, 1.650395365070528E+08, -4.946769635667241E+08, -4.543165870374209E+07,
2461050.500000000, A.D. 2026-Jan-10 00:00:00.0000, 1.737332895061934E+08, -4.913942486932738E+08, -4.409922424471882E+07,
2461057.500000000, A.D. 2026-Jan-17 00:00:00.0000, 1.823681252743152E+08, -4.879448890577388E+08, -4.275182986732194E+07,
2461064.500000000, A.D. 2026-Jan-24 00:00:00.0000, 1.909409709007056E+08, -4.843296729638079E+08, -4.138989905687577E+07,
2461071.500000000, A.D. 2026-Jan-31 00:00:00.0000, 1.994487572956844E+08, -4.805494413925791E+08, -4.001386155838355E+07,
2461078.500000000, A.D. 2026-Feb-07 00:00:00.0000, 2.078884199118548E+08, -4.766050885402914E+08, -3.862415336668494E+07,
2461085.500000000, A.D. 2026-Feb-14 00:00:00.0000, 2.162568997891903E+08, -4.724975625041297E+08, -3.722121675535953E+07,
2461092.500000000, A.D. 2026-Feb-21 00:00:00.0000, 2.245511453125835E+08, -4.682278655391567E+08, -3.580550033268818E+07,
2461099.500000000, A.D. 2026-Feb-28 00:00:00.0000, 2.327681135972605E+08, -4.637970527330558E+08, -3.437745893070355E+07,
2461106.500000000, A.D. 2026-Mar-07 00:00:00.0000, 2.409047694430376E+08, -4.592062310478810E+08, -3.293755329756331E+07,
2461113.500000000, A.D. 2026-Mar-14 00:00:00.0000, 2.489580846329917E+08, -4.544565610597446E+08, -3.148625003814822E+07,
2461120.500000000, A.D. 2026-Mar-21 00:00:00.0000, 2.569250393601268E+08, -4.495492584971871E+08, -3.002402172931215E+07,
2461127.500000000, A.D. 2026-Mar-28 00:00:00.0000, 2.648026237733772E+08, -4.444855945490161E+08, -2.855134694114351E+07,
2461134.500000000, A.D. 2026-Apr-04 00:00:00.0000, 2.725878390396703E+08, -4.392668959065915E+08, -2.706871018745279E+07,
2461141.500000000, A.D. 2026-Apr-11 00:00:00.0000, 2.802776981963717E+08, -4.338945448996638E+08, -2.557660185966530E+07,
2461148.500000000, A.D. 2026-Apr-18 00:00:00.0000, 2.878692269538558E+08, -4.283699797315802E+08, -2.407551815890405E+07,
2461155.500000000, A.D. 2026-Apr-25 00:00:00.0000, 2.953594644945069E+08, -4.226946947981914E+08, -2.256596102889475E+07,
2461162.500000000, A.D. 2026-May-02 00:00:00.0000, 3.027454642993179E+08, -4.168702411188827E+08, -2.104843809458262E+07,
2461169.500000000, A.D. 2026-May-09 00:00:00.0000, 3.100242951273792E+08, -4.108982269445074E+08, -1.952346262300321E+07,
2461176.500000000, A.D. 2026-May-16 00:00:00.0000, 3.171930425273244E+08, -4.047803184026179E+08, -1.799155352951109E+07,
2461183.500000000, A.D. 2026-May-23 00:00:00.0000, 3.242488109338309E+08, -3.985182391570435E+08, -1.645323535033202E+07,
2461190.500000000, A.D. 2026-May-30 00:00:00.0000, 3.311887242713063E+08, -3.921137687620414E+08, -1.490903796448398E+07,
2461197.500000000, A.D. 2026-Jun-06 00:00:00.0000, 3.380099247470691E+08, -3.855687429833944E+08, -1.335949630338854E+07,
2461204.500000000, A.D. 2026-Jun-13 00:00:00.0000, 3.447095734998885E+08, -3.788850558854244E+08, -1.180515036815926E+07,
2461211.500000000, A.D. 2026-Jun-20 00:00:00.0000, 3.512848526035846E+08, -3.720646607563958E+08, -1.024654526954582E+07,
2461218.500000000, A.D. 2026-Jun-27 00:00:00.0000, 3.577329667279525E+08, -3.651095702113372E+08, -8.684231162611127E+06,
2461225.500000000, A.D. 2026-Jul-04 00:00:00.0000, 3.640511444571919E+08, -3.580218562462115E+08, -7.118763139552087E+06,
2461232.500000000, A.D. 2026-Jul-11 00:00:00.0000, 3.702366395199385E+08, -3.508036503742260E+08, -5.550701114821434E+06,
2461239.500000000, A.D. 2026-Jul-18 00:00:00.0000, 3.762867320236807E+08, -3.434571438174229E+08, -3.980609709022984E+06,
2461246.500000000, A.D. 2026-Jul-25 00:00:00.0000, 3.821987297178397E+08, -3.359845877496537E+08, -2.409058133635685E+06,
2461253.500000000, A.D. 2026-Aug-01 00:00:00.0000, 3.879699693331257E+08, -3.283882936376214E+08, -8.366200849371403E+05,
2461260.500000000, A.D. 2026-Aug-08 00:00:00.0000, 3.935978182114899E+08, -3.206706337139619E+08, 7.361263302293569E+05,
2461267.500000000, A.D. 2026-Aug-15 00:00:00.0000, 3.990796766416888E+08, -3.128340411299355E+08, 2.308598635667801E+06,
2461274.500000000, A.D. 2026-Aug-22 00:00:00.0000, 4.044129801399478E+08, -3.048810085651829E+08, 3.880210163868040E+06,
2461281.500000000, A.D. 2026-Aug-29 00:00:00.0000, 4.095951993863813E+08, -2.968140866666546E+08, 5.450370468894348E+06,
$$EOE